[{"OBJECT_NAME":"STARLINK-5953","OBJECT_ID":"2023-078AJ","EPOCH":"2026-03-09T22:00:21.196800","MEAN_MOTION":14.98328807,"ECCENTRICITY":0.00025563,"INCLINATION":70.0008,"RA_OF_ASC_NODE":343.9061,"ARG_OF_PERICENTER":270.8954,"MEAN_ANOMALY":89.1912,"EPHEMERIS_TYPE":0,"CLASSIFICATION_TYPE":"U","NORAD_CAT_ID":56799,"ELEMENT_SET_NO":999,"REV_AT_EPOCH":15271,"BSTAR":-4.599535e-6,"MEAN_MOTION_DOT":-1.48e-6,"MEAN_MOTION_DDOT":0},{"OBJECT_NAME":"CZ-6A DEB","OBJECT_ID":"2022-151ED","EPOCH":"2026-03-09T17:24:21.525696","MEAN_MOTION":14.66413671,"ECCENTRICITY":0.0142971,"INCLINATION":98.6749,"RA_OF_ASC_NODE":159.221,"ARG_OF_PERICENTER":155.0329,"MEAN_ANOMALY":205.7879,"EPHEMERIS_TYPE":0,"CLASSIFICATION_TYPE":"U","NORAD_CAT_ID":54405,"ELEMENT_SET_NO":999,"REV_AT_EPOCH":17673,"BSTAR":0.00092710848,"MEAN_MOTION_DOT":5.915e-5,"MEAN_MOTION_DDOT":0}]
